{"type": "FeatureCollection", "features": [{"type": "Feature", "properties": {"norad_id": 2807, "name": "OPS 7218 (TRANSIT 16)", "group": "nnss", "lat": -30.177871843833543, "lon": 174.21493594717242, "alt_km": 1077.085315600366, "timestamp": "2025-12-12T11:38:31.680444+00:00", "meta": {"OBJECT_NAME": "OPS 7218 (TRANSIT 16)", "OBJECT_ID": "1967-048A", "EPOCH": "2025-12-12T02:01:38.938080", "MEAN_MOTION": 13.50721964, "ECCENTRICITY": 0.0021931, "INCLINATION": 89.6732, "RA_OF_ASC_NODE": 354.038, "ARG_OF_PERICENTER": 115.7971, "MEAN_ANOMALY": 307.1778, "EPHEMERIS_TYPE": 0, "CLASSIFICATION_TYPE": "U", "NORAD_CAT_ID": 2807, "ELEMENT_SET_NO": 999, "REV_AT_EPOCH": 88267, "BSTAR": 0.00019166, "MEAN_MOTION_DOT": 1.34e-06, "MEAN_MOTION_DDOT": 0}, "tle": {"line1": "1 02807U 67048A   25346.08447845  .00000134  00000+0  19166-3 0  9995", "line2": "2 02807  89.6732 354.0380 0021931 115.7971 307.1778 13.50721964882676"}}, "geometry": {"type": "Point", "coordinates": [174.21493594717242, -30.177871843833543]}}, {"type": "Feature", "properties": {"norad_id": 2965, "name": "OPS 4947 (TRANSIT 17)", "group": "nnss", "lat": -87.74821055028958, "lon": 4.986415289985737, "alt_km": 1039.5328766001776, "timestamp": "2025-12-12T11:38:31.680469+00:00", "meta": {"OBJECT_NAME": "OPS 4947 (TRANSIT 17)", "OBJECT_ID": "1967-092A", "EPOCH": "2025-12-12T03:31:23.931264", "MEAN_MOTION": 13.53453258, "ECCENTRICITY": 0.0046145, "INCLINATION": 89.2496, "RA_OF_ASC_NODE": 24.4809, "ARG_OF_PERICENTER": 236.2761, "MEAN_ANOMALY": 188.2519, "EPHEMERIS_TYPE": 0, "CLASSIFICATION_TYPE": "U", "NORAD_CAT_ID": 2965, "ELEMENT_SET_NO": 999, "REV_AT_EPOCH": 87089, "BSTAR": 0.00024464, "MEAN_MOTION_DOT": 1.76e-06, "MEAN_MOTION_DDOT": 0}, "tle": {"line1": "1 02965U 67092A   25346.14680476  .00000176  00000+0  24464-3 0  9998", "line2": "2 02965  89.2496  24.4809 0046145 236.2761 188.2519 13.53453258870891"}}, "geometry": {"type": "Point", "coordinates": [4.986415289985737, -87.74821055028958]}}, {"type": "Feature", "properties": {"norad_id": 3133, "name": "OPS 7034 (TRANSIT 18)", "group": "nnss", "lat": 61.871038965527575, "lon": -86.41417016170745, "alt_km": 1077.106784485707, "timestamp": "2025-12-12T11:38:31.680483+00:00", "meta": {"OBJECT_NAME": "OPS 7034 (TRANSIT 18)", "OBJECT_ID": "1968-012A", "EPOCH": "2025-12-11T13:05:39.509088", "MEAN_MOTION": 13.51565248, "ECCENTRICITY": 0.00737273, "INCLINATION": 90.0279, "RA_OF_ASC_NODE": 273.6354, "ARG_OF_PERICENTER": 172.5806, "MEAN_ANOMALY": 1.6392, "EPHEMERIS_TYPE": 0, "CLASSIFICATION_TYPE": "U", "NORAD_CAT_ID": 3133, "ELEMENT_SET_NO": 999, "REV_AT_EPOCH": 56902, "BSTAR": 0.00025524024, "MEAN_MOTION_DOT": 1.79e-06, "MEAN_MOTION_DDOT": 0}, "tle": {"line1": "1 03133U 68012A   25345.54559617  .00000179  00000+0  25524-3 0  9995", "line2": "2 03133  90.0279 273.6354 0073727 172.5806   1.6392 13.51565248569027"}}, "geometry": {"type": "Point", "coordinates": [-86.41417016170745, 61.871038965527575]}}, {"type": "Feature", "properties": {"norad_id": 4507, "name": "NNSS 19 (TRANSIT 19)", "group": "nnss", "lat": 36.250046231071515, "lon": -125.47032521773853, "alt_km": 1089.6959039851317, "timestamp": "2025-12-12T11:38:31.680495+00:00", "meta": {"OBJECT_NAME": "NNSS 19 (TRANSIT 19)", "OBJECT_ID": "1970-067A", "EPOCH": "2025-12-12T02:34:42.820320", "MEAN_MOTION": 13.51314873, "ECCENTRICITY": 0.0170582, "INCLINATION": 90.0055, "RA_OF_ASC_NODE": 234.5335, "ARG_OF_PERICENTER": 295.2295, "MEAN_ANOMALY": 63.1258, "EPHEMERIS_TYPE": 0, "CLASSIFICATION_TYPE": "U", "NORAD_CAT_ID": 4507, "ELEMENT_SET_NO": 999, "REV_AT_EPOCH": 72213, "BSTAR": 0.00023057, "MEAN_MOTION_DOT": 1.71e-06, "MEAN_MOTION_DDOT": 0}, "tle": {"line1": "1 04507U 70067A   25346.10744005  .00000171  00000+0  23057-3 0  9995", "line2": "2 04507  90.0055 234.5335 0170582 295.2295  63.1258 13.51314873722135"}}, "geometry": {"type": "Point", "coordinates": [-125.47032521773853, 36.250046231071515]}}, {"type": "Feature", "properties": {"norad_id": 6909, "name": "NNSS 20 (TRANSIT 20)", "group": "nnss", "lat": 88.95334001230542, "lon": -97.04136195691444, "alt_km": 873.1280723899617, "timestamp": "2025-12-12T11:38:31.680506+00:00", "meta": {"OBJECT_NAME": "NNSS 20 (TRANSIT 20)", "OBJECT_ID": "1973-081A", "EPOCH": "2025-12-11T17:42:34.169472", "MEAN_MOTION": 13.71433431, "ECCENTRICITY": 0.01566261, "INCLINATION": 89.8562, "RA_OF_ASC_NODE": 255.0691, "ARG_OF_PERICENTER": 81.282, "MEAN_ANOMALY": 280.6047, "EPHEMERIS_TYPE": 0, "CLASSIFICATION_TYPE": "U", "NORAD_CAT_ID": 6909, "ELEMENT_SET_NO": 999, "REV_AT_EPOCH": 80347, "BSTAR": 0.00032790531, "MEAN_MOTION_DOT": 3.34e-06, "MEAN_MOTION_DDOT": 0}, "tle": {"line1": "1 06909U 73081A   25345.73789548  .00000334  00000+0  32791-3 0  9997", "line2": "2 06909  89.8562 255.0691 0156626  81.2820 280.6047 13.71433431803478"}}, "geometry": {"type": "Point", "coordinates": [-97.04136195691444, 88.95334001230542]}}, {"type": "Feature", "properties": {"norad_id": 10457, "name": "TRANSAT", "group": "nnss", "lat": 41.345560199369594, "lon": 78.91590360401896, "alt_km": 1089.0222449058156, "timestamp": "2025-12-12T11:38:31.680517+00:00", "meta": {"OBJECT_NAME": "TRANSAT", "OBJECT_ID": "1977-106A", "EPOCH": "2025-12-12T04:38:14.622720", "MEAN_MOTION": 13.48943514, "ECCENTRICITY": 0.0025343, "INCLINATION": 89.6481, "RA_OF_ASC_NODE": 78.6164, "ARG_OF_PERICENTER": 191.0803, "MEAN_ANOMALY": 233.9899, "EPHEMERIS_TYPE": 0, "CLASSIFICATION_TYPE": "U", "NORAD_CAT_ID": 10457, "ELEMENT_SET_NO": 999, "REV_AT_EPOCH": 36736, "BSTAR": 0.00017141, "MEAN_MOTION_DOT": 1.18e-06, "MEAN_MOTION_DDOT": 0}, "tle": {"line1": "1 10457U 77106A   25346.19322480  .00000118  00000+0  17141-3 0  9993", "line2": "2 10457  89.6481  78.6164 0025343 191.0803 233.9899 13.48943514367366"}}, "geometry": {"type": "Point", "coordinates": [78.91590360401896, 41.345560199369594]}}, {"type": "Feature", "properties": {"norad_id": 12458, "name": "NOVA 1", "group": "nnss", "lat": -33.615415786957904, "lon": 91.29050609586884, "alt_km": 1187.3047436328407, "timestamp": "2025-12-12T11:38:31.680529+00:00", "meta": {"OBJECT_NAME": "NOVA 1", "OBJECT_ID": "1981-044A", "EPOCH": "2025-12-12T02:59:54.307104", "MEAN_MOTION": 13.23278469, "ECCENTRICITY": 0.0015896, "INCLINATION": 89.8524, "RA_OF_ASC_NODE": 91.3938, "ARG_OF_PERICENTER": 105.5082, "MEAN_ANOMALY": 306.3851, "EPHEMERIS_TYPE": 0, "CLASSIFICATION_TYPE": "U", "NORAD_CAT_ID": 12458, "ELEMENT_SET_NO": 999, "REV_AT_EPOCH": 15178, "BSTAR": 0.00019134, "MEAN_MOTION_DOT": 9e-07, "MEAN_MOTION_DDOT": 0}, "tle": {"line1": "1 12458U 81044A   25346.12493411  .00000090  00000+0  19134-3 0  9991", "line2": "2 12458  89.8524  91.3938 0015896 105.5082 306.3851 13.23278469151784"}}, "geometry": {"type": "Point", "coordinates": [91.29050609586884, -33.615415786957904]}}, {"type": "Feature", "properties": {"norad_id": 15362, "name": "NOVA 3", "group": "nnss", "lat": -19.358675225085914, "lon": -99.5113063178051, "alt_km": 1194.0244511063538, "timestamp": "2025-12-12T11:38:31.680540+00:00", "meta": {"OBJECT_NAME": "NOVA 3", "OBJECT_ID": "1984-110A", "EPOCH": "2025-12-11T20:42:38.702016", "MEAN_MOTION": 13.23044467, "ECCENTRICITY": 0.0030559, "INCLINATION": 90.1224, "RA_OF_ASC_NODE": 80.5244, "ARG_OF_PERICENTER": 334.4175, "MEAN_ANOMALY": 143.5683, "EPHEMERIS_TYPE": 0, "CLASSIFICATION_TYPE": "U", "NORAD_CAT_ID": 15362, "ELEMENT_SET_NO": 999, "REV_AT_EPOCH": 98687, "BSTAR": 0.00025406, "MEAN_MOTION_DOT": 1.15e-06, "MEAN_MOTION_DDOT": 0}, "tle": {"line1": "1 15362U 84110A   25345.86294794  .00000115  00000+0  25406-3 0  9995", "line2": "2 15362  90.1224  80.5244 0030559 334.4175 143.5683 13.23044467986871"}}, "geometry": {"type": "Point", "coordinates": [-99.5113063178051, -19.358675225085914]}}, {"type": "Feature", "properties": {"norad_id": 15935, "name": "OSCAR 30", "group": "nnss", "lat": -88.21688434568347, "lon": -85.46489491764265, "alt_km": 1258.271680754875, "timestamp": "2025-12-12T11:38:31.680550+00:00", "meta": {"OBJECT_NAME": "OSCAR 30", "OBJECT_ID": "1985-066A", "EPOCH": "2025-12-11T20:30:00.567072", "MEAN_MOTION": 13.36078238, "ECCENTRICITY": 0.01694171, "INCLINATION": 90.1649, "RA_OF_ASC_NODE": 99.8325, "ARG_OF_PERICENTER": 86.3773, "MEAN_ANOMALY": 29.1188, "EPHEMERIS_TYPE": 0, "CLASSIFICATION_TYPE": "U", "NORAD_CAT_ID": 15935, "ELEMENT_SET_NO": 999, "REV_AT_EPOCH": 96441, "BSTAR": 0.00025191195, "MEAN_MOTION_DOT": 1.5e-06, "MEAN_MOTION_DDOT": 0}, "tle": {"line1": "1 15935U 85066A   25345.85417323  .00000150  00000+0  25191-3 0  9996", "line2": "2 15935  90.1649  99.8325 0169417  86.3773  29.1188 13.36078238964416"}}, "geometry": {"type": "Point", "coordinates": [-85.46489491764265, -88.21688434568347]}}, {"type": "Feature", "properties": {"norad_id": 15936, "name": "OSCAR 24", "group": "nnss", "lat": -18.150013356769087, "lon": 92.35960382358819, "alt_km": 1169.2803226472033, "timestamp": "2025-12-12T11:38:31.680561+00:00", "meta": {"OBJECT_NAME": "OSCAR 24", "OBJECT_ID": "1985-066B", "EPOCH": "2025-12-11T20:07:33.897792", "MEAN_MOTION": 13.3593562, "ECCENTRICITY": 0.01704913, "INCLINATION": 90.179, "RA_OF_ASC_NODE": 92.2895, "ARG_OF_PERICENTER": 92.8556, "MEAN_ANOMALY": 23.5178, "EPHEMERIS_TYPE": 0, "CLASSIFICATION_TYPE": "U", "NORAD_CAT_ID": 15936, "ELEMENT_SET_NO": 999, "REV_AT_EPOCH": 96631, "BSTAR": 0.00019952055, "MEAN_MOTION_DOT": 1.21e-06, "MEAN_MOTION_DDOT": 0}, "tle": {"line1": "1 15936U 85066B   25345.83858678  .00000121  00000+0  19952-3 0  9993", "line2": "2 15936  90.1790  92.2895 0170491  92.8556  23.5178 13.35935620966312"}}, "geometry": {"type": "Point", "coordinates": [92.35960382358819, -18.150013356769087]}}]}